IRIDIUM 159             
1 43578U 18061K   25275.41155310  .00000208  00000+0  67385-4 0  9996
2 43578  86.4027 164.4547 0001965  86.4714 273.6706 14.34219674376433
IRIDIUM 180             
1 43922U 19002A   25275.48082062  .00000066  00000+0  16399-4 0  9996
2 43922  86.3913 101.3468 0002161  91.6071 268.5372 14.34217951352054
IRIDIUM 176             
1 43923U 19002B   25275.56137713  .00000532  00000+0  80386-4 0  9995
2 43923  86.6034 101.2939 0002984  80.1241 280.0313 14.72248751361349
IRIDIUM 168             
1 43924U 19002C   25275.47447740  .00000116  00000+0  34286-4 0  9996
2 43924  86.3915 101.4197 0002161  89.6802 270.4641 14.34218419352036
IRIDIUM 173             
1 43925U 19002D   25275.60132949  .00000014  00000+0 -21347-5 0  9997
2 43925  86.3912 101.2657 0002195  91.2806 268.8642 14.34217633352032
IRIDIUM 169             
1 43926U 19002E   25275.54811350  .00001773  00000+0  57302-3 0  9991
2 43926  86.4223 132.9259 0003508  83.2605 276.8992 14.38603999353187
IRIDIUM 172             
1 43927U 19002F   25275.59498573  .00000116  00000+0  34218-4 0  9997
2 43927  86.3912 101.2755 0002036  95.6292 264.5136 14.34218414352044
IRIDIUM 175             
1 43928U 19002G   25275.42058019  .00003168  00000+0  49852-3 0  9996
2 43928  86.1490  47.7576 0002459  81.6692 278.4803 14.72238834361312
